{
    "links": {
        "self": "http://www.neowsapp.com/rest/v1/neo/3720919?api_key=iIulBulltgU6a56xZRHN4H3l9WmuAYTsLGpBGhQ2"
    },
    "id": "3720919",
    "neo_reference_id": "3720919",
    "name": "(2015 LK)",
    "designation": "2015 LK",
    "nasa_jpl_url": "http://ssd.jpl.nasa.gov/sbdb.cgi?sstr=3720919",
    "absolute_magnitude_h": 25.4,
    "estimated_diameter": {
        "kilometers": {
            "estimated_diameter_min": 0.022108281,
            "estimated_diameter_max": 0.0494356193
        },
        "meters": {
            "estimated_diameter_min": 22.1082810359,
            "estimated_diameter_max": 49.435619262
        },
        "miles": {
            "estimated_diameter_min": 0.0137374447,
            "estimated_diameter_max": 0.0307178602
        },
        "feet": {
            "estimated_diameter_min": 72.5337327539,
            "estimated_diameter_max": 162.1903570994
        }
    },
    "is_potentially_hazardous_asteroid": false,
    "close_approach_data": [
        {
            "close_approach_date": "2001-05-13",
            "close_approach_date_full": "2001-May-13 23:21",
            "epoch_date_close_approach": 989796060000,
            "relative_velocity": {
                "kilometers_per_second": "19.4115573695",
                "kilometers_per_hour": "69881.6065300913",
                "miles_per_hour": "43421.712679767"
            },
            "miss_distance": {
                "astronomical": "0.3871615596",
                "lunar": "150.6058466844",
                "kilometers": "57918544.662038052",
                "miles": "35988914.8248350376"
            },
            "orbiting_body": "Earth"
        },
        {
            "close_approach_date": "2008-05-26",
            "close_approach_date_full": "2008-May-26 19:49",
            "epoch_date_close_approach": 1211831340000,
            "relative_velocity": {
                "kilometers_per_second": "13.326796564",
                "kilometers_per_hour": "47976.4676303093",
                "miles_per_hour": "29810.7112339552"
            },
            "miss_distance": {
                "astronomical": "0.1817577577",
                "lunar": "70.7037677453",
                "kilometers": "27190573.407896099",
                "miles": "16895438.8637562062"
            },
            "orbiting_body": "Earth"
        },
        {
            "close_approach_date": "2015-06-17",
            "close_approach_date_full": "2015-Jun-17 23:30",
            "epoch_date_close_approach": 1434583800000,
            "relative_velocity": {
                "kilometers_per_second": "8.1629193344",
                "kilometers_per_hour": "29386.5096038451",
                "miles_per_hour": "18259.6342591226"
            },
            "miss_distance": {
                "astronomical": "0.0202108654",
                "lunar": "7.8620266406",
                "kilometers": "3023502.414696698",
                "miles": "1878717.2832145124"
            },
            "orbiting_body": "Earth"
        },
        {
            "close_approach_date": "2019-10-31",
            "close_approach_date_full": "2019-Oct-31 11:37",
            "epoch_date_close_approach": 1572521820000,
            "relative_velocity": {
                "kilometers_per_second": "10.339786522",
                "kilometers_per_hour": "37223.2314791316",
                "miles_per_hour": "23129.0684710193"
            },
            "miss_distance": {
                "astronomical": "0.0848744768",
                "lunar": "33.0161714752",
                "kilometers": "12697040.946644416",
                "miles": "7889575.3997723008"
            },
            "orbiting_body": "Mars"
        }
    ],
    "orbital_data": {
        "orbit_id": "22",
        "orbit_determination_date": "2018-02-10 07:06:45",
        "first_observation_date": "2015-06-05",
        "last_observation_date": "2015-06-19",
        "data_arc_in_days": 14,
        "observations_used": 87,
        "orbit_uncertainty": "7",
        "minimum_orbit_intersection": ".0147224",
        "jupiter_tisserand_invariant": "3.998",
        "epoch_osculation": "2459000.5",
        "eccentricity": ".4430840519350097",
        "semi_major_axis": "1.759408395968169",
        "inclination": "3.218416085961924",
        "ascending_node_longitude": "104.1223102265988",
        "orbital_period": "852.4097665556944",
        "perihelion_distance": ".9798425948741168",
        "perihelion_argument": "191.810114602893",
        "aphelion_distance": "2.538974197062222",
        "perihelion_time": "2458921.041866182047",
        "mean_anomaly": "33.55771988634761",
        "mean_motion": ".4223320920578383",
        "equinox": "J2000",
        "orbit_class": {
            "orbit_class_type": "APO",
            "orbit_class_description": "Near-Earth asteroid orbits which cross the Earth’s orbit similar to that of 1862 Apollo",
            "orbit_class_range": "a (semi-major axis) > 1.0 AU; q (perihelion) < 1.017 AU"
        }
    },
    "is_sentry_object": false
}